# From MPEC 2016-ED0
332P-F/Ikeya-Murakami,e,9.5293,3.4757,152.8203,3.163214,0.1751908,0.49918860,359.8501,03/17.0/2016,2000,g 21.0,4.0
# From MPEC 2016-ED0
332P-G/Ikeya-Murakami,e,9.2523,3.6955,154.4000,3.050519,0.1849880,0.49200362,359.9006,03/19.0/2016,2000,g 19.0,4.0
# From MPC100285
332P-H/Ikeya-Murakami,e,9.3796,3.7860,152.3028,3.088155,0.1816166,0.48937146,72.7142,09/23.0/2022,2000,g 19.0,4.0
# From MPEC 2016-ED0
332P-I/Ikeya-Murakami,e,9.3791,3.8048,152.3297,3.081767,0.1821815,0.48955490,359.9360,03/17.0/2016,2000,g 20.5,2.0
# From MPEC 2016-EI8
332P-J/Ikeya-Murakami,e,9.4296,3.6729,152.7712,3.115165,0.1792596,0.49429435,359.8613,03/17.0/2016,2000,g 20.5,2.0
# From MPEC 2020-L06
333P/LINEAR,e,132.0019,115.6524,25.9843,4.221087,0.1136495,0.73650318,269.2881,09/23.0/2022,2000,g 15.0,4.0
# From MPC115888
334P/NEAT,e,20.4006,90.6004,90.1047,6.837000,0.0551323,0.35058667,106.7816,09/23.0/2022,2000,g 10.5,4.0
# From MPEC 2021-U31
335P/Gibbs,e,7.2932,330.8473,162.3076,3.578188,0.1456161,0.54618307,6.1144,09/23.0/2022,2000,g 17.0,4.0
# From MPC105244
336P/McNaught,e,17.8281,298.2612,308.7160,5.035578,0.0872228,0.44410160,179.7749,09/23.0/2022,2000,g 13.5,4.0
# From MPEC 2022-QD9
337P/WISE,e,15.3711,106.0604,161.0408,3.285759,0.1654819,0.49659152,13.8718,09/23.0/2022,2000,g 17.0,4.0
# From MPEC 2022-K19
338P/McNaught,e,25.3865,9.7999,4.4738,3.894381,0.1282468,0.41206103,272.8195,09/23.0/2022,2000,g 12.0,4.0
# From MPC101101
339P/Gibbs,e,5.7332,172.7228,27.4764,3.699156,0.1385320,0.63552969,312.6241,09/23.0/2022,2000,g 17.0,4.0
# From MPC133426
340P/Boattini,e,2.0781,291.6729,35.9863,4.250261,0.1124814,0.28080572,239.5994,09/23.0/2022,2000,g 14.3,4.0
# From MPEC 2022-K19
341P/Gibbs,e,3.7972,29.9680,312.2497,4.291064,0.1108809,0.41575499,255.5364,09/23.0/2022,2000,g 12.5,4.0
# From MPC101101
342P/SOHO,e,11.6667,27.7109,73.2564,3.041510,0.1858105,0.98277484,0.0000,10/19.2862/2021,2000,g  9.0,4.0
# From MPEC 2022-K19
343P/NEAT-LONEOS,e,5.5896,257.1271,137.4572,5.458200,0.0772912,0.58504771,159.3334,09/23.0/2022,2000,g 14.0,4.0
# From MPC109148
344P/Read,e,3.4941,273.1284,140.4239,4.861844,0.0919396,0.42301417,197.6628,09/23.0/2022,2000,g 13.0,4.0
# From MPEC 2022-K19
345P/LINEAR,e,2.7275,154.5152,196.5455,4.035406,0.1215831,0.22149888,274.0457,09/23.0/2022,2000,g 12.0,4.0
# From MPEC 2022-K19
346P/Catalina,e,22.1993,102.4541,335.9560,4.473677,0.1041615,0.50308174,213.2486,09/23.0/2022,2000,g 14.0,4.0
# From MPEC 2022-K19
347P/PANSTARRS,e,11.7539,261.0209,98.4240,3.604279,0.1440378,0.38609839,316.7791,09/23.0/2022,2000,g 15.0,4.0
# From MPEC 2022-ED3
348P/PANSTARRS,e,17.7388,312.9413,135.6725,3.151321,0.1761835,0.30699935,39.1902,09/23.0/2022,2000,g 14.0,4.0
# From MPEC 2022-K19
349P/Lemmon,e,5.4904,331.7516,255.9270,3.575686,0.1457690,0.29844117,270.7086,09/23.0/2022,2000,g 14.0,4.0
# From MPC111775
350P/McNaught,e,7.3629,65.2958,139.6986,4.085535,0.1193523,0.09305368,208.2738,09/23.0/2022,2000,g 14.0,4.0
# From MPC105244
351P/Wiegert-PANSTARRS,e,12.7803,283.4295,352.6812,4.438885,0.1053885,0.29522857,263.5110,09/23.0/2022,2000,g 12.5,4.0
# From MPC110086
352P/Skiff,e,21.0127,28.0084,309.3284,6.643980,0.0575522,0.61795840,110.3884,09/23.0/2022,2000,g 11.5,4.0
# From MPEC 2020-AA5
353P/McNaught,e,28.4137,121.5360,230.4562,4.170697,0.1157154,0.47038748,200.7325,09/23.0/2022,2000,g 14.5,4.0
# From MPC105545
354P/LINEAR,e,5.2542,320.1308,132.7439,2.290286,0.2843607,0.12536728,250.2382,09/23.0/2022,2000,g 15.5,4.0
# From MPEC 2020-AA5
355P/LINEAR-NEAT,e,11.0461,51.4316,336.2984,3.469931,0.1524835,0.50780051,275.1414,09/23.0/2022,2000,g 15.5,2.0
# From MPEC 2022-F14
356P/WISE,e,9.6380,160.7973,226.0300,4.157309,0.1162748,0.35579274,202.1527,09/23.0/2022,2000,g 14.0,4.0
# From MPC114609
357P/Hill,e,6.3156,44.5583,1.3957,4.458262,0.1047022,0.43563214,165.0732,09/23.0/2022,2000,g 15.5,4.0
# From MPEC 2020-HN5
358P/PANSTARRS,e,11.0604,85.7026,299.7785,3.146575,0.1765822,0.23892270,286.8604,09/23.0/2022,2000,g 18.0,4.0
# From MPC110086
359P/LONEOS,e,10.2665,149.7540,200.2511,4.640028,0.0986105,0.32418713,183.1026,09/23.0/2022,2000,g 13.5,4.0
# From MPC108599
360P/WISE,e,24.1121,2.1922,354.1852,3.700363,0.1384642,0.49928626,257.3227,09/23.0/2022,2000,g 19.5,6.0
# From MPC114609
361P/Spacewatch,e,13.9020,203.2566,219.0016,4.935857,0.0898794,0.43887467,138.6565,09/23.0/2022,2000,g 12.0,4.0
# From MPEC 2017-V13
362P/,e,15.5568,192.5461,53.6298,3.971349,0.1245366,0.27881402,276.9768,09/23.0/2022,2000,g 12.9,2.0
# From MPC114609
363P/Lemmon,e,5.4071,146.8831,340.9964,3.565612,0.1463871,0.52034908,245.5124,09/23.0/2022,2000,g 17.5,4.0
# From MPEC 2022-K19
364P/PANSTARRS,e,12.1350,46.1586,212.0146,2.880080,0.2016496,0.72182824,313.0129,09/23.0/2022,2000,g 17.0,2.0
# From MPC111775
365P/PANSTARRS,e,9.8354,86.3828,67.5742,3.161034,0.1753721,0.58136579,293.1351,09/23.0/2022,2000,g 17.0,4.0
# From MPC114610
366P/Spacewatch,e,8.8572,70.7630,153.0599,3.496738,0.1507334,0.34802445,230.1477,09/23.0/2022,2000,g 15.0,4.0
# From MPC112395
367P/Catalina,e,8.4598,58.7199,172.8219,3.507377,0.1500481,0.27977876,233.6208,09/23.0/2022,2000,g 17.5,2.0
# From MPC114610
368P/NEAT,e,15.4815,257.8670,118.8905,5.528995,0.0758115,0.62674222,111.3306,09/23.0/2022,2000,g 14.0,4.0
# From MPC114610
369P/Hill,e,10.3225,47.2907,13.1537,4.381983,0.1074479,0.55522790,154.4976,09/23.0/2022,2000,g 15.0,4.0
# From MPEC 2021-F20
370P/NEAT,e,19.4212,55.0766,356.6955,6.434371,0.0603872,0.61523204,94.5300,09/23.0/2022,2000,g 13.0,4.0
# From MPC114610
371P/LINEAR-Skiff,e,17.3833,67.2525,308.5375,4.180669,0.1153016,0.47707316,166.9545,09/23.0/2022,2000,g 16.0,4.0
# From MPEC 2020-K19
372P/McNaught,e,9.5079,325.8180,27.5754,4.507374,0.1029956,0.15259856,147.2837,09/23.0/2022,2000,g 13.5,4.0
# From MPEC 2021-F20
373P/Rinner,e,13.7685,231.9587,221.0147,3.801321,0.1329849,0.39272569,167.9723,09/23.0/2022,2000,g 14.5,4.0
# From MPC114610
374P/Larson,e,10.7669,7.9151,51.4464,4.971751,0.0889078,0.46322498,120.0643,09/23.0/2022,2000,g 14.0,4.0
# From MPEC 2021-F20
375P/Hill,e,17.3615,359.9503,119.3779,5.550994,0.0753612,0.65880886,103.4076,09/23.0/2022,2000,g 16.0,4.0
# From MPEC 2022-K19
376P/LONEOS,e,1.1753,313.9422,284.7318,5.777281,0.0709772,0.51637938,77.7883,09/23.0/2022,2000,g 12.5,4.0
# From MPEC 2022-N37
377P/Scotti,e,9.0242,226.0667,355.0403,6.705183,0.0567660,0.25156087,45.5968,09/23.0/2022,2000,g  9.5,4.0
# From MPEC 2022-S20
378P/McNaught,e,19.0529,94.1346,193.6707,6.335760,0.0618025,0.46788316,43.6422,09/23.0/2022,2000,g 12.0,4.0
# From MPC115889
379P/Spacewatch,e,12.4521,183.8384,30.5801,3.509905,0.1498860,0.34324413,171.9954,09/23.0/2022,2000,g 15.0,4.0
# From MPEC 2022-K19
380P/PANSTARRS,e,8.1614,132.0135,86.3848,4.431378,0.1056564,0.34125122,128.4100,09/23.0/2022,2000,g 14.6,4.0
# From MPEC 2021-J28
381P/LINEAR-Spacewatch,e,28.3788,173.7582,173.2698,7.134492,0.0517201,0.68187105,56.4683,09/23.0/2022,2000,g 17.5,2.0
# From MPEC 2022-S20
382P/Larson,e,8.4580,173.7389,167.4816,6.286031,0.0625373,0.29919994,15.4569,09/23.0/2022,2000,g  8.0,4.0
# From MPEC 2022-OB6
383P/Christensen,e,12.3251,207.8268,133.7657,3.546679,0.1475609,0.59947919,156.7766,09/23.0/2022,2000,g 18.0,4.0
# From MPEC 2022-OB6
384P/Kowalski,e,7.2843,354.2287,37.6294,2.900150,0.1995600,0.61610360,214.8949,09/23.0/2022,2000,g 19.5,4.0
# From MPEC 2021-F20
385P/Hill,e,16.8322,357.0606,44.3338,4.288452,0.1109822,0.40195802,122.4714,09/23.0/2022,2000,g 13.0,4.0
# From MPEC 2021-L04
386P/PANSTARRS,e,15.2306,134.9391,353.1319,4.053456,0.1207719,0.41630757,92.3851,09/23.0/2022,2000,g 14.5,4.0
# From MPEC 2021-J28
387P/Boattini,e,8.9277,259.2641,162.7894,4.797083,0.0938076,0.73663604,104.3383,09/23.0/2022,2000,g 15.0,4.0
# From MPEC 2021-S45
388P/Gibbs,e,23.8854,37.0453,42.3023,5.241464,0.0821344,0.61853745,95.0286,09/23.0/2022,2000,g 13.0,4.0
# From MPEC 2022-OB6
389P/Siding Spring,e,160.0825,218.8735,249.3841,5.632563,0.0737301,0.70436583,73.6252,09/23.0/2022,2000,g 16.0,4.0
# From MPEC 2022-OB6
390P/Gibbs,e,18.5597,152.2730,232.3805,5.808814,0.0704000,0.70741509,64.3739,09/23.0/2022,2000,g 12.0,4.0
# From MPEC 2021-F20
391P/Kowalski,e,21.2698,124.7381,187.2943,4.683220,0.0972495,0.11997414,160.0182,09/23.0/2022,2000,g  8.0,4.0
# From MPEC 2021-J28
392P/LINEAR,e,4.9320,24.8864,71.8865,6.141188,0.0647628,0.68305925,58.6135,09/23.0/2022,2000,g 14.5,4.0
# From MPEC 2021-BE3
393P/Spacewatch-Hill,e,16.7876,36.3966,328.7123,4.791414,0.0939742,0.12064943,99.5831,09/23.0/2022,2000,g 11.0,4.0
# From MPEC 2020-KB7
394P/PANSTARRS,e,8.5294,98.1255,54.4773,4.330647,0.1093641,0.36743872,112.4604,09/23.0/2022,2000,g 16.0,2.4
# From MPEC 2022-S20
395P/Catalina-NEAT,e,3.2881,223.1637,90.5320,6.633300,0.0576912,0.38711607,15.2813,09/23.0/2022,2000,g 10.0,4.0
# From MPEC 2020-KB7
396P/,e,5.4366,136.6564,8.4432,6.808140,0.0554832,0.41571251,62.2742,09/23.0/2022,2000,g 12.0,4.0
# From MPEC 2022-OB6
397P/Lemmon,e,10.9298,8.1947,14.5061,3.829572,0.1315160,0.40529179,108.5360,09/23.0/2022,2000,g 12.0,4.0
# From MPEC 2021-L04
398P/Boattini,e,11.0160,127.4479,320.2027,3.126904,0.1782511,0.58291714,113.2184,09/23.0/2022,2000,g 15.5,4.0
# From MPEC 2022-M88
399P/PANSTARRS,e,13.3206,207.1329,214.3385,3.791590,0.1334972,0.44720239,65.1837,09/23.0/2022,2000,g 14.0,4.0
# From MPEC 2022-ED3
400P/PANSTARRS,e,10.9303,176.3915,238.8180,3.561377,0.1466484,0.40948536,86.4809,09/23.0/2022,2000,g 15.5,2.8
# From MPEC 2022-K19
401P/McNaught,e,12.8026,359.8780,309.4179,5.776265,0.0709959,0.57969048,72.4941,09/23.0/2022,2000,g 12.5,4.0
# From MPEC 2022-P82
402P/LINEAR,e,30.8469,123.0929,326.7409,7.022406,0.0529633,0.43923387,14.9545,09/23.0/2022,2000,g  8.0,4.0
# From MPEC 2021-J28
403P/Catalina,e,12.3217,163.8122,277.6378,5.428269,0.0779313,0.50378827,57.3987,09/23.0/2022,2000,g 12.0,4.0
# From MPEC 2022-R68
404P/Bressi,e,9.7421,260.3141,168.0304,4.767282,0.0946886,0.13256763,322.3022,09/23.0/2022,2000,g 10.0,4.0
# From MPEC 2021-L04
405P/Lemmon,e,9.3656,3.3153,112.1963,3.606556,0.1439014,0.68921665,91.7667,09/23.0/2022,2000,g 17.5,4.0
